ONEWEB-0627             
1 55168U 23004AE  25226.50771702  .00000016  00000+0  72394-5 0  9996
2 55168  87.9025  66.9184 0001819 106.5430 253.5901 13.17649760127199
ONEWEB-0628             
1 55169U 23004AF  25226.47320919 -.00000274  00000+0 -79826-3 0  9996
2 55169  87.8865  51.6076 0002135 108.4922 251.6439 13.12443987127802
ONEWEB-0629             
1 55170U 23004AG  25226.48323553  .00000045  00000+0  82979-4 0  9994
2 55170  87.9033  66.9148 0002133  90.4390 269.6986 13.17650857127197
ONEWEB-0631             
1 55171U 23004AH  25226.48418155  .00000027  00000+0  35769-4 0  9993
2 55171  87.9138  36.3446 0001292  99.8297 260.2981 13.18687739129251
ONEWEB-0709             
1 55172U 23004AJ  25226.33872376 -.00000058  00000+0 -20087-3 0  9999
2 55172  87.8786  82.2468 0001083  56.6861 303.4371 13.11418345125651
ONEWEB-0710             
1 55173U 23004AK  25226.49759557  .00000052  00000+0  10092-3 0  9999
2 55173  87.9025  66.9100 0001761  92.9811 267.1522 13.17648630127195
ONEWEB-0711             
1 55174U 23004AL  25226.38619365 -.00000317  00000+0 -92997-3 0  9990
2 55174  87.8784  82.2044 0001857 108.8692 251.2637 13.11413948125628
ONEWEB-0713             
1 55175U 23004AM  25226.40484360 -.00000357  00000+0 -10419-2 0  9991
2 55175  87.8785  82.2086 0001704  93.3742 266.7581 13.11418081125612
ONEWEB-0715             
1 55176U 23004AN  25226.32345350 -.00000599  00000+0 -17272-2 0  9990
2 55176  87.8785  82.2252 0001386  81.5158 278.6127 13.11414835125648
ONEWEB-0716             
1 55177U 23004AP  25226.49082665 -.00000010  00000+0 -58557-4 0  9997
2 55177  87.9026  66.9111 0001908  81.6718 278.4630 13.17648358127198
ONEWEB-0717             
1 55178U 23004AQ  25226.47394955  .00000008  00000+0 -12188-4 0  9990
2 55178  87.9030  66.8747 0001703 112.6067 247.5245 13.17650787127247
ONEWEB-0719             
1 55179U 23004AR  25226.48409298  .00000013  00000+0  10080-5 0  9994
2 55179  87.9029  66.8556 0002006  85.7862 274.3499 13.17648912127194
ONEWEB-0530             
1 55796U 23029A   25226.57847389  .00000043  00000+0  73778-4 0  9998
2 55796  87.9302 335.5833 0002230 111.3966 248.7405 13.20770489120674
ONEWEB-0534             
1 55797U 23029B   25226.56585977  .00000037  00000+0  58665-4 0  9991
2 55797  87.9293 335.5918 0001996  96.6498 263.4863 13.20769937120679
ONEWEB-0556             
1 55798U 23029C   25226.34488917  .00000176  00000+0  40132-3 0  9997
2 55798  87.9301 335.6291 0002748  98.5226 261.6219 13.20773312120645
ONEWEB-0562             
1 55799U 23029D   25226.55955281  .00000051  00000+0  93490-4 0  9992
2 55799  87.9289 335.5768 0002756 111.6997 248.4430 13.20771926120670
ONEWEB-0563             
1 55800U 23029E   25226.55323944  .00000120  00000+0  26258-3 0  9994
2 55800  87.9301 335.5960 0002051  93.8959 266.2409 13.20773325120667
