[{"OBJECT_NAME":"ONEWEB-0627","OBJECT_ID":"2023-004AE","EPOCH":"2025-08-14T12:11:06.750528","MEAN_MOTION":13.1764976,"ECCENTRICITY":0.0001819,"INCLINATION":87.9025,"RA_OF_ASC_NODE":66.9184,"ARG_OF_PERICENTER":106.543,"MEAN_ANOMALY":253.5901,"EPHEMERIS_TYPE":0,"CLASSIFICATION_TYPE":"U","NORAD_CAT_ID":55168,"ELEMENT_SET_NO":999,"REV_AT_EPOCH":12719,"BSTAR":7.2394e-6,"MEAN_MOTION_DOT":1.6e-7,"MEAN_MOTION_DDOT":0},{"OBJECT_NAME":"ONEWEB-0628","OBJECT_ID":"2023-004AF","EPOCH":"2025-08-14T11:21:25.274016","MEAN_MOTION":13.12443987,"ECCENTRICITY":0.0002135,"INCLINATION":87.8865,"RA_OF_ASC_NODE":51.6076,"ARG_OF_PERICENTER":108.4922,"MEAN_ANOMALY":251.6439,"EPHEMERIS_TYPE":0,"CLASSIFICATION_TYPE":"U","NORAD_CAT_ID":55169,"ELEMENT_SET_NO":999,"REV_AT_EPOCH":12780,"BSTAR":-0.00079826,"MEAN_MOTION_DOT":-2.74e-6,"MEAN_MOTION_DDOT":0},{"OBJECT_NAME":"ONEWEB-0629","OBJECT_ID":"2023-004AG","EPOCH":"2025-08-14T11:35:51.549792","MEAN_MOTION":13.17650857,"ECCENTRICITY":0.0002133,"INCLINATION":87.9033,"RA_OF_ASC_NODE":66.9148,"ARG_OF_PERICENTER":90.439,"MEAN_ANOMALY":269.6986,"EPHEMERIS_TYPE":0,"CLASSIFICATION_TYPE":"U","NORAD_CAT_ID":55170,"ELEMENT_SET_NO":999,"REV_AT_EPOCH":12719,"BSTAR":8.2979e-5,"MEAN_MOTION_DOT":4.5e-7,"MEAN_MOTION_DDOT":0},{"OBJECT_NAME":"ONEWEB-0631","OBJECT_ID":"2023-004AH","EPOCH":"2025-08-14T11:37:13.285920","MEAN_MOTION":13.18687739,"ECCENTRICITY":0.0001292,"INCLINATION":87.9138,"RA_OF_ASC_NODE":36.3446,"ARG_OF_PERICENTER":99.8297,"MEAN_ANOMALY":260.2981,"EPHEMERIS_TYPE":0,"CLASSIFICATION_TYPE":"U","NORAD_CAT_ID":55171,"ELEMENT_SET_NO":999,"REV_AT_EPOCH":12925,"BSTAR":3.5769e-5,"MEAN_MOTION_DOT":2.7e-7,"MEAN_MOTION_DDOT":0},{"OBJECT_NAME":"ONEWEB-0709","OBJECT_ID":"2023-004AJ","EPOCH":"2025-08-14T08:07:45.732864","MEAN_MOTION":13.11418345,"ECCENTRICITY":0.0001083,"INCLINATION":87.8786,"RA_OF_ASC_NODE":82.2468,"ARG_OF_PERICENTER":56.6861,"MEAN_ANOMALY":303.4371,"EPHEMERIS_TYPE":0,"CLASSIFICATION_TYPE":"U","NORAD_CAT_ID":55172,"ELEMENT_SET_NO":999,"REV_AT_EPOCH":12565,"BSTAR":-0.00020087,"MEAN_MOTION_DOT":-5.8e-7,"MEAN_MOTION_DDOT":0},{"OBJECT_NAME":"ONEWEB-0710","OBJECT_ID":"2023-004AK","EPOCH":"2025-08-14T11:56:32.257248","MEAN_MOTION":13.1764863,"ECCENTRICITY":0.0001761,"INCLINATION":87.9025,"RA_OF_ASC_NODE":66.91,"ARG_OF_PERICENTER":92.9811,"MEAN_ANOMALY":267.1522,"EPHEMERIS_TYPE":0,"CLASSIFICATION_TYPE":"U","NORAD_CAT_ID":55173,"ELEMENT_SET_NO":999,"REV_AT_EPOCH":12719,"BSTAR":0.00010092,"MEAN_MOTION_DOT":5.2e-7,"MEAN_MOTION_DDOT":0},{"OBJECT_NAME":"ONEWEB-0711","OBJECT_ID":"2023-004AL","EPOCH":"2025-08-14T09:16:07.131360","MEAN_MOTION":13.11413948,"ECCENTRICITY":0.0001857,"INCLINATION":87.8784,"RA_OF_ASC_NODE":82.2044,"ARG_OF_PERICENTER":108.8692,"MEAN_ANOMALY":251.2637,"EPHEMERIS_TYPE":0,"CLASSIFICATION_TYPE":"U","NORAD_CAT_ID":55174,"ELEMENT_SET_NO":999,"REV_AT_EPOCH":12562,"BSTAR":-0.00092997,"MEAN_MOTION_DOT":-3.17e-6,"MEAN_MOTION_DDOT":0},{"OBJECT_NAME":"ONEWEB-0713","OBJECT_ID":"2023-004AM","EPOCH":"2025-08-14T09:42:58.487040","MEAN_MOTION":13.11418081,"ECCENTRICITY":0.0001704,"INCLINATION":87.8785,"RA_OF_ASC_NODE":82.2086,"ARG_OF_PERICENTER":93.3742,"MEAN_ANOMALY":266.7581,"EPHEMERIS_TYPE":0,"CLASSIFICATION_TYPE":"U","NORAD_CAT_ID":55175,"ELEMENT_SET_NO":999,"REV_AT_EPOCH":12561,"BSTAR":-0.0010419,"MEAN_MOTION_DOT":-3.57e-6,"MEAN_MOTION_DDOT":0},{"OBJECT_NAME":"ONEWEB-0715","OBJECT_ID":"2023-004AN","EPOCH":"2025-08-14T07:45:46.382400","MEAN_MOTION":13.11414835,"ECCENTRICITY":0.0001386,"INCLINATION":87.8785,"RA_OF_ASC_NODE":82.2252,"ARG_OF_PERICENTER":81.5158,"MEAN_ANOMALY":278.6127,"EPHEMERIS_TYPE":0,"CLASSIFICATION_TYPE":"U","NORAD_CAT_ID":55176,"ELEMENT_SET_NO":999,"REV_AT_EPOCH":12564,"BSTAR":-0.0017272,"MEAN_MOTION_DOT":-5.99e-6,"MEAN_MOTION_DDOT":0},{"OBJECT_NAME":"ONEWEB-0716","OBJECT_ID":"2023-004AP","EPOCH":"2025-08-14T11:46:47.422560","MEAN_MOTION":13.17648358,"ECCENTRICITY":0.0001908,"INCLINATION":87.9026,"RA_OF_ASC_NODE":66.9111,"ARG_OF_PERICENTER":81.6718,"MEAN_ANOMALY":278.463,"EPHEMERIS_TYPE":0,"CLASSIFICATION_TYPE":"U","NORAD_CAT_ID":55177,"ELEMENT_SET_NO":999,"REV_AT_EPOCH":12719,"BSTAR":-5.8557e-5,"MEAN_MOTION_DOT":-1.0e-7,"MEAN_MOTION_DDOT":0},{"OBJECT_NAME":"ONEWEB-0717","OBJECT_ID":"2023-004AQ","EPOCH":"2025-08-14T11:22:29.241120","MEAN_MOTION":13.17650787,"ECCENTRICITY":0.0001703,"INCLINATION":87.903,"RA_OF_ASC_NODE":66.8747,"ARG_OF_PERICENTER":112.6067,"MEAN_ANOMALY":247.5245,"EPHEMERIS_TYPE":0,"CLASSIFICATION_TYPE":"U","NORAD_CAT_ID":55178,"ELEMENT_SET_NO":999,"REV_AT_EPOCH":12724,"BSTAR":-1.2188e-5,"MEAN_MOTION_DOT":8.0e-8,"MEAN_MOTION_DDOT":0},{"OBJECT_NAME":"ONEWEB-0719","OBJECT_ID":"2023-004AR","EPOCH":"2025-08-14T11:37:05.633472","MEAN_MOTION":13.17648912,"ECCENTRICITY":0.0002006,"INCLINATION":87.9029,"RA_OF_ASC_NODE":66.8556,"ARG_OF_PERICENTER":85.7862,"MEAN_ANOMALY":274.3499,"EPHEMERIS_TYPE":0,"CLASSIFICATION_TYPE":"U","NORAD_CAT_ID":55179,"ELEMENT_SET_NO":999,"REV_AT_EPOCH":12719,"BSTAR":1.008e-6,"MEAN_MOTION_DOT":1.3e-7,"MEAN_MOTION_DDOT":0},{"OBJECT_NAME":"ONEWEB-0530","OBJECT_ID":"2023-029A","EPOCH":"2025-08-14T13:53:00.144096","MEAN_MOTION":13.20770489,"ECCENTRICITY":0.000223,"INCLINATION":87.9302,"RA_OF_ASC_NODE":335.5833,"ARG_OF_PERICENTER":111.3966,"MEAN_ANOMALY":248.7405,"EPHEMERIS_TYPE":0,"CLASSIFICATION_TYPE":"U","NORAD_CAT_ID":55796,"ELEMENT_SET_NO":999,"REV_AT_EPOCH":12067,"BSTAR":7.3778e-5,"MEAN_MOTION_DOT":4.3e-7,"MEAN_MOTION_DDOT":0},{"OBJECT_NAME":"ONEWEB-0534","OBJECT_ID":"2023-029B","EPOCH":"2025-08-14T13:34:50.284128","MEAN_MOTION":13.20769937,"ECCENTRICITY":0.0001996,"INCLINATION":87.9293,"RA_OF_ASC_NODE":335.5918,"ARG_OF_PERICENTER":96.6498,"MEAN_ANOMALY":263.4863,"EPHEMERIS_TYPE":0,"CLASSIFICATION_TYPE":"U","NORAD_CAT_ID":55797,"ELEMENT_SET_NO":999,"REV_AT_EPOCH":12067,"BSTAR":5.8665e-5,"MEAN_MOTION_DOT":3.7e-7,"MEAN_MOTION_DDOT":0},{"OBJECT_NAME":"ONEWEB-0556","OBJECT_ID":"2023-029C","EPOCH":"2025-08-14T08:16:38.424288","MEAN_MOTION":13.20773312,"ECCENTRICITY":0.0002748,"INCLINATION":87.9301,"RA_OF_ASC_NODE":335.6291,"ARG_OF_PERICENTER":98.5226,"MEAN_ANOMALY":261.6219,"EPHEMERIS_TYPE":0,"CLASSIFICATION_TYPE":"U","NORAD_CAT_ID":55798,"ELEMENT_SET_NO":999,"REV_AT_EPOCH":12064,"BSTAR":0.00040132,"MEAN_MOTION_DOT":1.76e-6,"MEAN_MOTION_DDOT":0},{"OBJECT_NAME":"ONEWEB-0562","OBJECT_ID":"2023-029D","EPOCH":"2025-08-14T13:25:45.362784","MEAN_MOTION":13.20771926,"ECCENTRICITY":0.0002756,"INCLINATION":87.9289,"RA_OF_ASC_NODE":335.5768,"ARG_OF_PERICENTER":111.6997,"MEAN_ANOMALY":248.443,"EPHEMERIS_TYPE":0,"CLASSIFICATION_TYPE":"U","NORAD_CAT_ID":55799,"ELEMENT_SET_NO":999,"REV_AT_EPOCH":12067,"BSTAR":9.349e-5,"MEAN_MOTION_DOT":5.1e-7,"MEAN_MOTION_DDOT":0},{"OBJECT_NAME":"ONEWEB-0563","OBJECT_ID":"2023-029E","EPOCH":"2025-08-14T13:16:39.887616","MEAN_MOTION":13.20773325,"ECCENTRICITY":0.0002051,"INCLINATION":87.9301,"RA_OF_ASC_NODE":335.596,"ARG_OF_PERICENTER":93.8959,"MEAN_ANOMALY":266.2409,"EPHEMERIS_TYPE":0,"CLASSIFICATION_TYPE":"U","NORAD_CAT_ID":55800,"ELEMENT_SET_NO":999,"REV_AT_EPOCH":12066,"BSTAR":0.00026258,"MEAN_MOTION_DOT":1.2e-6,"MEAN_MOTION_DDOT":0}]
